{"type": "FeatureCollection", "features": [ {"type": "Feature", "properties": {"norad_id": 30208, "name": "FENGYUN 1C DEB", "group": "fengyun-1c-debris", "lat": 22.160702198029213, "lon": -176.5248589014685, "alt_km": 806.8303124452395, "timestamp": "2025-12-25T07:41:09.997800+00:00", "meta": {"OBJECT_NAME": "FENGYUN 1C DEB", "OBJECT_ID": "1999-025VR", "EPOCH": "2025-12-24T22:47:29.300352", "MEAN_MOTION": 14.23552109, "ECCENTRICITY": 0.00331035, "INCLINATION": 98.562, "RA_OF_ASC_NODE": 359.5966, "ARG_OF_PERICENTER": 233.6407, "MEAN_ANOMALY": 185.9773, "EPHEMERIS_TYPE": 0, "CLASSIFICATION_TYPE": "U", "NORAD_CAT_ID": 30208, "ELEMENT_SET_NO": 999, "REV_AT_EPOCH": 98011, "BSTAR": 0.00045023109, "MEAN_MOTION_DOT": 9.88e-06, "MEAN_MOTION_DDOT": 0}, "tle": {"line1": "1 30208U 99025VR  25358.94964468  .00000988  00000+0  45023-3 0  9992", "line2": "2 30208  98.5620 359.5966 0033103 233.6407 185.9773 14.23552109980114"}}, "geometry": {"type": "Point", "coordinates": [-176.5248589014685, 22.160702198029213]}}, {"type": "Feature", "properties": {"norad_id": 30209, "name": "FENGYUN 1C DEB", "group": "fengyun-1c-debris", "lat": 19.471586237190838, "lon": -7.296143854890893, "alt_km": 877.6150609157767, "timestamp": "2025-12-25T07:41:09.997810+00:00", "meta": {"OBJECT_NAME": "FENGYUN 1C DEB", "OBJECT_ID": "1999-025VS", "EPOCH": "2025-12-24T21:41:21.884064", "MEAN_MOTION": 14.12916289, "ECCENTRICITY": 0.00389619, "INCLINATION": 98.7146, "RA_OF_ASC_NODE": 355.4071, "ARG_OF_PERICENTER": 203.6596, "MEAN_ANOMALY": 218.6454, "EPHEMERIS_TYPE": 0, "CLASSIFICATION_TYPE": "U", "NORAD_CAT_ID": 30209, "ELEMENT_SET_NO": 999, "REV_AT_EPOCH": 97378, "BSTAR": 0.00025594827, "MEAN_MOTION_DOT": 4.37e-06, "MEAN_MOTION_DDOT": 0}, "tle": {"line1": "1 30209U 99025VS  25358.90372551  .00000437  00000+0  25595-3 0  9996", "line2": "2 30209  98.7146 355.4071 0038961 203.6596 218.6454 14.12916289973781"}}, "geometry": {"type": "Point", "coordinates": [-7.296143854890893, 19.471586237190838]}}, {"type": "Feature", "properties": {"norad_id": 30210, "name": "FENGYUN 1C DEB", "group": "fengyun-1c-debris", "lat": 1.4376990613604588, "lon": -130.4713473096553, "alt_km": 858.1150143996947, "timestamp": "2025-12-25T07:41:09.997821+00:00", "meta": {"OBJECT_NAME": "FENGYUN 1C DEB", "OBJECT_ID": "1999-025VT", "EPOCH": "2025-12-24T22:54:16.253856", "MEAN_MOTION": 14.0829334, "ECCENTRICITY": 0.00567432, "INCLINATION": 99.1891, "RA_OF_ASC_NODE": 48.9234, "ARG_OF_PERICENTER": 102.9111, "MEAN_ANOMALY": 20.8431, "EPHEMERIS_TYPE": 0, "CLASSIFICATION_TYPE": "U", "NORAD_CAT_ID": 30210, "ELEMENT_SET_NO": 999, "REV_AT_EPOCH": 96929, "BSTAR": 0.00069248819, "MEAN_MOTION_DOT": 1.156e-05, "MEAN_MOTION_DDOT": 0}, "tle": {"line1": "1 30210U 99025VT  25358.95435479  .00001156  00000+0  69249-3 0  9995", "line2": "2 30210  99.1891  48.9234 0056743 102.9111  20.8431 14.08293340969292"}}, "geometry": {"type": "Point", "coordinates": [-130.4713473096553, 1.4376990613604588]}}, {"type": "Feature", "properties": {"norad_id": 30212, "name": "FENGYUN 1C DEB", "group": "fengyun-1c-debris", "lat": -75.48502824769851, "lon": -94.86632503906723, "alt_km": 896.1485093436568, "timestamp": "2025-12-25T07:41:09.997832+00:00", "meta": {"OBJECT_NAME": "FENGYUN 1C DEB", "OBJECT_ID": "1999-025VV", "EPOCH": "2025-12-24T14:52:41.800800", "MEAN_MOTION": 13.97064467, "ECCENTRICITY": 0.00969809, "INCLINATION": 99.4565, "RA_OF_ASC_NODE": 224.3412, "ARG_OF_PERICENTER": 204.7802, "MEAN_ANOMALY": 154.8685, "EPHEMERIS_TYPE": 0, "CLASSIFICATION_TYPE": "U", "NORAD_CAT_ID": 30212, "ELEMENT_SET_NO": 999, "REV_AT_EPOCH": 96391, "BSTAR": 0.00040860529, "MEAN_MOTION_DOT": 5.46e-06, "MEAN_MOTION_DDOT": 0}, "tle": {"line1": "1 30212U 99025VV  25358.61992825  .00000546  00000+0  40861-3 0  9994", "line2": "2 30212  99.4565 224.3412 0096980 204.7802 154.8685 13.97064467963913"}}, "geometry": {"type": "Point", "coordinates": [-94.86632503906723, -75.48502824769851]}}, {"type": "Feature", "properties": {"norad_id": 30213, "name": "FENGYUN 1C DEB", "group": "fengyun-1c-debris", "lat": -68.86751121529024, "lon": 100.53120695786329, "alt_km": 851.6496781901487, "timestamp": "2025-12-25T07:41:09.997842+00:00", "meta": {"OBJECT_NAME": "FENGYUN 1C DEB", "OBJECT_ID": "1999-025VW", "EPOCH": "2025-12-24T15:46:25.349376", "MEAN_MOTION": 14.11641063, "ECCENTRICITY": 0.00725476, "INCLINATION": 99.122, "RA_OF_ASC_NODE": 75.2951, "ARG_OF_PERICENTER": 210.8695, "MEAN_ANOMALY": 309.9615, "EPHEMERIS_TYPE": 0, "CLASSIFICATION_TYPE": "U", "NORAD_CAT_ID": 30213, "ELEMENT_SET_NO": 999, "REV_AT_EPOCH": 96683, "BSTAR": 0.0015438286, "MEAN_MOTION_DOT": 2.832e-05, "MEAN_MOTION_DDOT": 0}, "tle": {"line1": "1 30213U 99025VW  25358.65723784  .00002832  00000+0  15438-2 0  9996", "line2": "2 30213  99.1220  75.2951 0072547 210.8695 309.9615 14.11641063966831"}}, "geometry": {"type": "Point", "coordinates": [100.53120695786329, -68.86751121529024]}}, {"type": "Feature", "properties": {"norad_id": 30214, "name": "FENGYUN 1C DEB", "group": "fengyun-1c-debris", "lat": -75.89792396674044, "lon": -145.155306780529, "alt_km": 799.8084791964266, "timestamp": "2025-12-25T07:41:09.997852+00:00", "meta": {"OBJECT_NAME": "FENGYUN 1C DEB", "OBJECT_ID": "1999-025VX", "EPOCH": "2025-12-24T03:46:08.936832", "MEAN_MOTION": 14.31011937, "ECCENTRICITY": 0.00202183, "INCLINATION": 98.7231, "RA_OF_ASC_NODE": 71.3499, "ARG_OF_PERICENTER": 9.1815, "MEAN_ANOMALY": 20.8591, "EPHEMERIS_TYPE": 0, "CLASSIFICATION_TYPE": "U", "NORAD_CAT_ID": 30214, "ELEMENT_SET_NO": 999, "REV_AT_EPOCH": 97730, "BSTAR": 0.0016471646, "MEAN_MOTION_DOT": 4.301e-05, "MEAN_MOTION_DDOT": 0}, "tle": {"line1": "1 30214U 99025VX  25358.15704788  .00004301  00000+0  16472-2 0  9997", "line2": "2 30214  98.7231  71.3499 0020218   9.1815  20.8591 14.31011937977303"}}, "geometry": {"type": "Point", "coordinates": [-145.155306780529, -75.89792396674044]}}, {"type": "Feature", "properties": {"norad_id": 30217, "name": "FENGYUN 1C DEB", "group": "fengyun-1c-debris", "lat": 45.168315516311054, "lon": 171.17996659214973, "alt_km": 770.6635621236182, "timestamp": "2025-12-25T07:41:09.997863+00:00", "meta": {"OBJECT_NAME": "FENGYUN 1C DEB", "OBJECT_ID": "1999-025WA", "EPOCH": "2025-12-24T22:38:45.239424", "MEAN_MOTION": 14.2485051, "ECCENTRICITY": 0.01406733, "INCLINATION": 98.4328, "RA_OF_ASC_NODE": 342.2362, "ARG_OF_PERICENTER": 64.361, "MEAN_ANOMALY": 297.2026, "EPHEMERIS_TYPE": 0, "CLASSIFICATION_TYPE": "U", "NORAD_CAT_ID": 30217, "ELEMENT_SET_NO": 999, "REV_AT_EPOCH": 98247, "BSTAR": 0.00028045094, "MEAN_MOTION_DOT": 6.84e-06, "MEAN_MOTION_DDOT": 0}, "tle": {"line1": "1 30217U 99025WA  25358.94357916  .00000684  00000+0  28045-3 0  9994", "line2": "2 30217  98.4328 342.2362 0140673  64.3610 297.2026 14.24850510982470"}}, "geometry": {"type": "Point", "coordinates": [171.17996659214973, 45.168315516311054]}}, {"type": "Feature", "properties": {"norad_id": 30218, "name": "FENGYUN 1C DEB", "group": "fengyun-1c-debris", "lat": -1.1571580894545372, "lon": -91.109559500373, "alt_km": 757.2972971840509, "timestamp": "2025-12-25T07:41:09.997872+00:00", "meta": {"OBJECT_NAME": "FENGYUN 1C DEB", "OBJECT_ID": "1999-025WB", "EPOCH": "2025-12-24T18:06:21.691872", "MEAN_MOTION": 14.28950681, "ECCENTRICITY": 0.00712714, "INCLINATION": 98.9861, "RA_OF_ASC_NODE": 88.4907, "ARG_OF_PERICENTER": 219.6578, "MEAN_ANOMALY": 292.7259, "EPHEMERIS_TYPE": 0, "CLASSIFICATION_TYPE": "U", "NORAD_CAT_ID": 30218, "ELEMENT_SET_NO": 999, "REV_AT_EPOCH": 97280, "BSTAR": 0.0026283922, "MEAN_MOTION_DOT": 6.786e-05, "MEAN_MOTION_DDOT": 0}, "tle": {"line1": "1 30218U 99025WB  25358.75441773  .00006786  00000+0  26284-2 0  9990", "line2": "2 30218  98.9861  88.4907 0071271 219.6578 292.7259 14.28950681972805"}}, "geometry": {"type": "Point", "coordinates": [-91.109559500373, -1.1571580894545372]}}, {"type": "Feature", "properties": {"norad_id": 30221, "name": "FENGYUN 1C DEB", "group": "fengyun-1c-debris", "lat": 38.94927887643871, "lon": -84.99079278544572, "alt_km": 810.3271463413585, "timestamp": "2025-12-25T07:41:09.997883+00:00", "meta": {"OBJECT_NAME": "FENGYUN 1C DEB", "OBJECT_ID": "1999-025WE", "EPOCH": "2025-12-24T19:25:07.365792", "MEAN_MOTION": 14.45832645, "ECCENTRICITY": 0.01448117, "INCLINATION": 98.9555, "RA_OF_ASC_NODE": 87.1466, "ARG_OF_PERICENTER": 5.4498, "MEAN_ANOMALY": 354.8227, "EPHEMERIS_TYPE": 0, "CLASSIFICATION_TYPE": "U", "NORAD_CAT_ID": 30221, "ELEMENT_SET_NO": 999, "REV_AT_EPOCH": 99575, "BSTAR": 0.00019104301, "MEAN_MOTION_DOT": 7.15e-06, "MEAN_MOTION_DDOT": 0}, "tle": {"line1": "1 30221U 99025WE  25358.80911303  .00000715  00000+0  19104-3 0  9991", "line2": "2 30221  98.9555  87.1466 0144811   5.4498 354.8227 14.45832645995750"}}, "geometry": {"type": "Point", "coordinates": [-84.99079278544572, 38.94927887643871]}}, {"type": "Feature", "properties": {"norad_id": 30222, "name": "FENGYUN 1C DEB", "group": "fengyun-1c-debris", "lat": 26.78459241852376, "lon": 27.859005977295094, "alt_km": 854.1007057633797, "timestamp": "2025-12-25T07:41:09.997893+00:00", "meta": {"OBJECT_NAME": "FENGYUN 1C DEB", "OBJECT_ID": "1999-025WF", "EPOCH": "2025-12-24T20:24:35.812800", "MEAN_MOTION": 14.040786, "ECCENTRICITY": 0.00372745, "INCLINATION": 98.84, "RA_OF_ASC_NODE": 31.9076, "ARG_OF_PERICENTER": 3.3699, "MEAN_ANOMALY": 170.1015, "EPHEMERIS_TYPE": 0, "CLASSIFICATION_TYPE": "U", "NORAD_CAT_ID": 30222, "ELEMENT_SET_NO": 999, "REV_AT_EPOCH": 97008, "BSTAR": 0.00025037174, "MEAN_MOTION_DOT": 3.56e-06, "MEAN_MOTION_DDOT": 0}, "tle": {"line1": "1 30222U 99025WF  25358.85041450  .00000356  00000+0  25037-3 0  9997", "line2": "2 30222  98.8400  31.9076 0037274   3.3699 170.1015 14.04078600970088"}}, "geometry": {"type": "Point", "coordinates": [27.859005977295094, 26.78459241852376]}}]}